#aV2008  3  2  0  0   .00000000      96 DD+AD WGS84 FIT  NGA
## 1469       .00000000   900.00000000 54527  .0000000000000
+   31     1  2  3  4  5  6  8  9 10 11 12 13 14 15 16 17 18
+         19 20 21 22 23 24 25 26 27 28 29 30 31 32  0  0  0
+          0  0  0  0  0  0  0  0  0  0  0  0  0  0  0  0  0
+          0  0  0  0  0  0  0  0  0  0  0  0  0  0  0  0  0
+          0  0  0  0  0  0  0  0  0  0  0  0  0  0  0  0  0
++         0  0  0  0  0  0  0  0  0  0  0  0  0  0  0  0  0
++         0  0  0  0  0  0  0  0  0  0  0  0  0  0  0  0  0
++         0  0  0  0  0  0  0  0  0  0  0  0  0  0  0  0  0
++         0  0  0  0  0  0  0  0  0  0  0  0  0  0  0  0  0
++         0  0  0  0  0  0  0  0  0  0  0  0  0  0  0  0  0
%c cc cc ccc ccc cccc cccc cccc cccc ccccc ccccc ccccc ccccc
%c cc cc ccc ccc cccc cccc cccc cccc ccccc ccccc ccccc ccccc
%f  0.0000000  0.000000000  0.00000000000  0.000000000000000
%f  0.0000000  0.000000000  0.00000000000  0.000000000000000
%i    0    0    0    0      0      0      0      0         0
%i    0    0    0    0      0      0      0      0         0
/*      NGA, ST. LOUIS,MO.                                  
/*   EPHEMERIS COMPUTED FROM  3 DAYS OF DATA                
/* CCCCCCCCCCCCCCCCCCCCCCCCCCCCCCCCCCCCCCCCCCCCCCCCCCCCCCCCC
/* CCCCCCCCCCCCCCCCCCCCCCCCCCCCCCCCCCCCCCCCCCCCCCCCCCCCCCCCC
*  2008  3  2 11  0   .00000000                                                 
P  1  18373.055670  18092.662591   6735.708243    189.435264                    
V  1  -7703.124703  -3317.555729  30858.710864       .027047                    
P  2 -13075.801515 -14406.776342 -18402.801466    178.793500                    
V  2   1951.869386 -22908.718235  16378.428639       .030787                    
P  3  24500.424788  10624.735953   1308.428759    194.803961                    
V  3    200.757982   4091.318365 -30690.761350       .052827                    
P  4  -6760.838742 -23284.290715 -10501.116089    -18.658059                    
V  4   3700.736617 -13226.297413  27553.243966      -.069829                    
P  5 -20440.649283  16547.335090  -3373.240398    708.424209                    
V  5  -5251.814656   -680.381181  31034.976794       .127867                    
P  6   4605.270721  18286.548510 -18535.614191     46.566987                    
V  6 -21831.136439 -10079.731161 -15268.042139       .165048                    
P  8    339.547068 -26171.854404   2530.548186   -143.232188                    
V  8   2786.246200  -3148.827148 -32314.125893      -.015791                    
P  9 -13578.950371   9793.469042  19958.793113    113.187388                    
V  9  -1442.191400 -26744.422777  11946.561982       .018804                    
P 10 -21037.052422  -2038.103245 -16417.263196   -254.587447                    
V 10  17527.216525 -10667.201293 -20977.831905      -.027284                    
P 11  13223.490168 -13049.566606  18731.786848     26.930482                    
V 11   6100.730858  23828.178557  12521.787663      -.001566                    
P 12 -23669.247203  11907.009397   1129.628784   -357.489362                    
V 12   -168.193532  -3095.065106  31824.325711      -.006278                    
P 13   5875.175818 -13441.586549 -22252.921271    243.185663                    
V 13  23196.999219  15487.471568  -3216.894954       .020815                    
P 14  10592.290744  18988.723579  15417.011495   -292.013866                    
V 14 -16876.886329  -9456.454814  23306.523606       .038316                    
P 15 -23365.467545  -4185.432313  11941.579305    -81.386587                    
V 15 -11739.820688  -9849.338561 -26476.775332      -.035156                    
P 16  17801.313352   5508.402579 -18920.419239    132.358314                    
V 16 -20811.564146  12236.586010 -15772.136930      -.006272                    
P 17 -10234.568905 -19166.304709  15409.177722     41.684197                    
V 17  17491.732559   8733.186324  22366.599790      -.004709                    
P 18 -12781.772047  18028.693408  14643.376758   -199.889462                    
V 18 -17680.218879   5918.619653 -23333.426883       .031866                    
P 19  22870.790181   5342.708333  12649.015345     22.781865                    
V 19  11641.366682  11015.945578 -25706.180474       .013472                    
P 20  22601.180082 -13843.295143  -1355.154830    119.462169                    
V 20   2977.443413   2047.226040  31450.106617      -.007807                    
P 21  -5584.428536  24944.908684  -5777.073103     70.497898                    
V 21  -3568.940330  -7896.712628 -30407.433626      -.008527                    
P 22   1477.186173  16207.707041  21137.101895    209.170649                    
V 22 -24179.169896  10974.753365  -6815.010943       .003186                    
P 23  18381.856594  -3861.631009 -18939.062836    338.056432                    
V 23  19666.762109  13442.197113  16179.182499       .027086                    
P 24 -12776.147243  16829.617377 -16093.601825     74.837869                    
V 24   -305.198846 -20746.408035 -20945.386751       .029826                    
P 25   8483.377608 -20605.240952 -14211.848569    521.580650                    
V 25   3342.322557  18423.779441 -23924.734641       .077592                    
P 26 -23530.744681  -8846.650798   8926.970310    197.375444                    
V 26  -9063.038144  -7679.740191 -29391.595965       .096200                    
P 27   3996.812005 -25005.051978  -7052.258139    171.531796                    
V 27   3063.614224   9790.142218 -30283.278381       .025393                    
P 28    947.600237 -16763.594672  20875.200701    -15.928371                    
V 28  23376.157093 -10808.292610 -10258.107751      -.005963                    
P 29  -9814.031927  11689.289814 -21620.030082    -53.470369                    
V 29 -23241.329436 -15132.690897   2380.917335       .041305                    
P 30 -16833.744815  18169.286490  -9781.197417     66.018081                    
V 30 -11788.686062   3658.601397  28138.266865       .014972                    
P 31   7748.563307  22261.585382 -11932.237396    -11.234805                    
V 31  -2689.697327  15452.062808  26708.846097      -.014409                    
P 32  13278.474736   9980.898048  21136.201858    240.934120                    
V 32 -23353.560297  11071.663597   9808.214161       .084463                    
EOF
